[{"OBJECT_NAME":"FGRST (GLAST)","OBJECT_ID":"2008-029A","EPOCH":"2026-03-09T16:23:33.767808","MEAN_MOTION":15.23332347,"ECCENTRICITY":0.00078443,"INCLINATION":25.5809,"RA_OF_ASC_NODE":175.0882,"ARG_OF_PERICENTER":229.4432,"MEAN_ANOMALY":130.5423,"EPHEMERIS_TYPE":0,"CLASSIFICATION_TYPE":"U","NORAD_CAT_ID":33053,"ELEMENT_SET_NO":999,"REV_AT_EPOCH":98064,"BSTAR":0.0001824844,"MEAN_MOTION_DOT":4.798e-5,"MEAN_MOTION_DDOT":0},{"OBJECT_NAME":"OBJECT C","OBJECT_ID":"2024-203C","EPOCH":"2026-03-08T19:37:32.628864","MEAN_MOTION":15.23715458,"ECCENTRICITY":0.00114765,"INCLINATION":97.4332,"RA_OF_ASC_NODE":137.9023,"ARG_OF_PERICENTER":346.2559,"MEAN_ANOMALY":13.8364,"EPHEMERIS_TYPE":0,"CLASSIFICATION_TYPE":"U","NORAD_CAT_ID":61871,"ELEMENT_SET_NO":999,"REV_AT_EPOCH":7357,"BSTAR":0.00073309113,"MEAN_MOTION_DOT":0.00017593,"MEAN_MOTION_DDOT":0}]
